[{"OBJECT_NAME":"GAOFEN-9 05","OBJECT_ID":"2020-058A","EPOCH":"2026-03-10T00:01:50.876256","MEAN_MOTION":15.30293976,"ECCENTRICITY":0.0010522,"INCLINATION":97.2228,"RA_OF_ASC_NODE":111.963,"ARG_OF_PERICENTER":91.0204,"MEAN_ANOMALY":269.2242,"EPHEMERIS_TYPE":0,"CLASSIFICATION_TYPE":"U","NORAD_CAT_ID":46232,"ELEMENT_SET_NO":999,"REV_AT_EPOCH":30843,"BSTAR":0.00025120304,"MEAN_MOTION_DOT":7.299e-5,"MEAN_MOTION_DDOT":0},{"OBJECT_NAME":"STARLINK-32682","OBJECT_ID":"2024-229E","EPOCH":"2026-03-09T11:44:02.343264","MEAN_MOTION":15.27589471,"ECCENTRICITY":0.00012062,"INCLINATION":42.9945,"RA_OF_ASC_NODE":239.1712,"ARG_OF_PERICENTER":206.4951,"MEAN_ANOMALY":153.584,"EPHEMERIS_TYPE":0,"CLASSIFICATION_TYPE":"U","NORAD_CAT_ID":62196,"ELEMENT_SET_NO":999,"REV_AT_EPOCH":7090,"BSTAR":0.0011135019,"MEAN_MOTION_DOT":0.00030515,"MEAN_MOTION_DDOT":0}]
